#cP2023  1 20  0  0  0.00000000      96 ORBIT IGS20 HLM  IGS
## 2245 432000.00000000   900.00000000 59964 0.0000000000000
+   31   G01G02G03G04G05G06G07G08G09G10G11G12G13G14G15G16G17
+        G18G19G20G21G22G23G24G25G26G27G29G30G31G32  0  0  0
+          0  0  0  0  0  0  0  0  0  0  0  0  0  0  0  0  0
+          0  0  0  0  0  0  0  0  0  0  0  0  0  0  0  0  0
+          0  0  0  0  0  0  0  0  0  0  0  0  0  0  0  0  0
++         2  2  2  3  2  2  2  3  2  2  2  2  2  2  2  2  2
++         2  2  2  2  2  2  2  2  2  3  2  2  2  2  0  0  0
++         0  0  0  0  0  0  0  0  0  0  0  0  0  0  0  0  0
++         0  0  0  0  0  0  0  0  0  0  0  0  0  0  0  0  0
++         0  0  0  0  0  0  0  0  0  0  0  0  0  0  0  0  0
%c G  cc GPS ccc cccc cccc cccc cccc ccccc ccccc ccccc ccccc
%c cc cc ccc ccc cccc cccc cccc cccc ccccc ccccc ccccc ccccc
%f  1.2500000  1.025000000  0.00000000000  0.000000000000000
%f  0.0000000  0.000000000  0.00000000000  0.000000000000000
%i    0    0    0    0      0      0      0      0         0
%i    0    0    0    0      0      0      0      0         0
/* RAPID ORBIT COMBINATION FROM WEIGHTED AVERAGE OF:        
/* cod emr esa gfz grg jpl ngs sio usn whu                  
/* REFERENCED TO IGS TIME (IGST) AND TO WEIGHTED MEAN POLE: 
/* PCV:IGS20_2233 OL/AL:FES2014b NONE     Y  ORB:CMB CLK:CMB
*  2023  1 20 15  0  0.00000000
PG01 -22357.565178 -14532.724545   1820.182847    222.098463  5  4  7  79       
PG02  23756.733214  10712.525368  -3822.152938   -626.144843  6  4  6  94       
PG03 -12598.413193 -11858.240126  20064.065682   -370.961911  6  6  6  73       
PG04 -20670.731547  -3500.302800  16378.021417    -44.845548  7  6  8  89       
PG05   6265.746057  23668.883136 -10313.910275   -112.714530  5  5  7 102       
PG06  -6864.138289  13026.300590  22169.468087    561.389714  5  5  6 112       
PG07 -22358.801641  -3505.719824 -13853.591587    255.618597  4  6  7  84       
PG08 -11055.213067 -11234.550439 -21475.120732   -104.493115  8  8  9 100       
PG09 -24681.083049   6528.487934   7338.606652   -233.131778  6  6  7  73       
PG10  11224.825225 -19036.109806 -14326.487443    -21.197123  4  5  6  87       
PG11   6013.082026  19529.986435  16996.310687    -83.263838  4  6  7 109       
PG12  11279.796619  14077.893053  19252.823029   -330.379582  5  4  6  99       
PG13   2456.006125  15004.960487 -21942.594033    462.560426  7  7  6  74       
PG14 -13311.322241  16605.756064 -15807.252060    -45.453887  7  7  4  84       
PG15  12767.402126  10524.202637 -21262.938113      6.270408  6  8  7  44       
PG16  -1352.630498 -25096.157577  -8109.896607   -523.244033  8  6  6 103       
PG17 -22201.879912  13449.328710   6292.586392    694.640461  6  7  3  73       
PG18  20539.584048    604.751393 -16904.880665   -106.753705  9  5  6  86       
PG19 -14623.921815  15894.211629  15044.775969    266.659179  7  6  6 100       
PG20    830.045113  26601.493721   1894.006479    455.867111  5  5  8 105       
PG21 -20410.660863 -16426.594940  -5848.906425    153.567284  5  6  3  88       
PG22  10638.359601 -17115.063141  17642.347487    409.908739  5  6  5  79       
PG23  14578.840716  -7854.948742 -20729.957328      3.077004 10  1  9  86       
PG24  21939.278004  15139.762097  -3018.345679    -38.287218  5  2  7  95       
PG25  14926.841173   3630.343828  21375.141376    412.978041  6  4  5  96       
PG26   4591.607125 -25343.800840   5588.847291    240.574649  7  4  5  93       
PG27   1034.732704 -16431.873211 -20979.248254    122.371942  7  8  9  88       
PG29  24598.282951  -2378.007006   9789.189962   -581.510884  7  5  8  92       
PG30 -14807.226100   8037.144899 -20491.016734   -532.762458  5  3  6 104       
PG31   5842.494249 -14426.705185  21307.361503   -206.878669  5  6  3 102       
PG32  19566.737220 -15872.634091   8233.474128   -370.180525  5  7  3  93       
*  2023  1 20 15 15  0.00000000
PG01 -22339.165915 -14698.760651  -1069.658682    222.094203  4  5  7  74       
PG02  23937.925671  11103.459376   -958.136892   -626.142695  6  2  6  97       
PG03 -12392.949871 -14086.199084  18724.382767   -370.959578  6  6  5  69       
PG04 -18952.456666  -4472.051791  18117.847967    -44.838533  7  7  7  61       
PG05   6032.261717  24679.939901  -7700.389794   -112.715821  4  4  7  91       
PG06  -8970.721077  11650.953300  22190.357873    561.394926  5  6  6 100       
PG07 -23505.666642  -4501.422930 -11594.277899    255.613034  4  6  7  79       
PG08  -8901.387658 -12425.652764 -21783.742788   -104.494779  8  8  9  93       
PG09 -23920.170321   5837.658643   9944.964518   -233.125817  6  6  7  78       
PG10  11311.313425 -17236.199272 -16393.144524    -21.198506  4  6  6  91       
PG11   4280.595740  18453.028960  18642.330127    -83.271944  3  6  6 112       
PG12  10896.592359  16212.770174  17766.883518   -330.383429  5  4  6  90       
PG13    132.767321  15778.207376 -21513.108703    462.566042  6  7  6  71       
PG14 -13339.058442  14677.108697 -17601.347413    -45.446804  7  7  4  70       
PG15  10844.098226  11902.416447 -21583.897492      6.273417  6  8  6  48       
PG16   -994.889255 -25798.947098  -5356.662001   -523.242938  8  6  6 110       
PG17 -22744.500380  13474.908032   3483.397395    694.642770  6  6  2  84       
PG18  21965.759183   1735.650986 -14930.689038   -106.767542  9  4  5  84       
PG19 -16218.088229  16308.427253  12814.026973    266.663771  7  8  7 104       
PG20    514.022060  26264.474108   4675.962403    455.864980  5  5  8  92       
PG21 -19547.467498 -16186.320961  -8501.329557    153.567471  5  5  3  72       
PG22  12405.512296 -17671.034105  15782.276848    409.915759  6  6  6  85       
PG23  14593.854759  -5438.387202 -21492.962557      3.078168  9     9  82       
PG24  21398.314628  15181.043948  -5736.201581    -38.302153  4  3  7  73       
PG25  14795.014716   6112.090215  20928.013645    412.981041  7  4  4  83       
PG26   4941.408534 -24533.077904   8257.784223    240.575116  7  4  5 102       
PG27   3124.115832 -17402.681433 -19915.436060    122.363537  7  9 10  99       
PG29  23500.540431  -1727.118927  12285.107940   -581.512655  6  5  7  85       
PG30 -16679.953000   6677.719169 -19545.549419   -532.761499  5  3  5  51       
PG31   7929.700223 -13062.470809  21550.618763   -206.879539  5  6  3  83       
PG32  20370.722260 -16002.605049   5515.937991   -370.191546  5  7  3  99       
*  2023  1 20 15 30  0.00000000
PG01 -22051.569550 -14700.547036  -3941.533103    222.089950  5  5  7 101       
PG02  23843.619930  11341.760192   1922.726280   -626.140369  6     6  98       
PG03 -12308.038459 -16149.695855  17060.539107   -370.957245  6  6  4  36       
PG04 -17129.821379  -5619.029070  19547.219539    -44.831493  7  7  7  32       
PG05   5834.393717  25399.627402  -4954.165910   -112.717522  3  3  7  98       
PG06 -11134.549683  10407.030940  21832.000635    561.400126  5  6  5  71       
PG07 -24468.106880  -5300.627373  -9136.119616    255.607038  4  5  8  98       
PG08  -6797.891581 -13737.168763 -21719.692704   -104.496026  8  9  9 106       
PG09 -22952.962052   4957.721740  12380.052032   -233.119876  6  6  7  67       
PG10  11497.202188 -15223.854803 -18170.570896    -21.199940  5  6  6  84       
PG11   2351.535467  17378.811242  19968.187324    -83.280098  4  7  6 109       
PG12  10638.496838  18175.307264  15969.807427   -330.387832  6  5  6  79       
PG13  -2084.053779  16649.509270 -20718.375747    462.571892  4  7  5  69       
PG14 -13458.669148  12567.171709 -19091.078023    -45.439691  6  7  3  43       
PG15   8976.149172  13384.217925 -21548.443441      6.276457  6  8  6  71       
PG16   -696.574520 -26201.482263  -2509.245421   -523.241943  8  7  6 110       
PG17 -23002.044511  13381.583097    614.999398    694.644619  6  6  2  73       
PG18  23245.845576   2666.436471 -12701.166020   -106.781351  9  4  5  97       
PG19 -17542.450612  16696.143600  10356.888559    266.668228  7  9  8  90       
PG20    128.287053  25640.144028   7378.538340    455.862698  4  6  8  97       
PG21 -18402.983955 -15875.025894 -11010.695391    153.567801  5  4  2  98       
PG22  13943.863745 -18222.028009  13656.176490    409.923061  5  7  6  87       
PG23  14741.316147  -2962.016513 -21885.411523      3.079309  9  3  9  54       
PG24  20591.587895  15123.151158  -8358.571368    -38.317075  4  4  8  73       
PG25  14787.221575   8521.486658  20112.041839    412.984087  7  4  4  96       
PG26   5350.097811 -23444.965993  10781.222221    240.575559  7  5  6 108       
PG27   5043.214340 -18414.379727 -18511.686323    122.355210  8 10 10  91       
PG29  22196.985073   -896.132228  14569.920634   -581.514903  4  5  7  90       
PG30 -18505.116325   5474.849308 -18263.310877   -532.760573  4  3  5  80       
PG31  10084.575586 -11804.548786  21417.081184   -206.880693  5  7  3  85       
PG32  20899.228266 -16010.903501   2702.674477   -370.202587  5  7  4  95       
EOF
